EUTELSAT 8 WEST B       
1 40875U 15039B   25280.92025468 -.00000063  00000+0  00000+0 0  9993
2 40875   0.0697 350.4558 0003757 208.0340 141.6245  1.00271224 37122
EUTELSAT 9B             
1 41310U 16005A   25280.92363469  .00000064  00000+0  00000+0 0  9998
2 41310   0.0607  62.4538 0003453 166.2271 129.6456  1.00271135 35586
EUTELSAT 65 WEST A      
1 41382U 16014A   25280.21032799 -.00000274  00000+0  00000+0 0  9992
2 41382   0.0719  36.7096 0002336 166.3425 183.5804  1.00268878 34993
EUTELSAT 117 WEST B     
1 41589U 16038B   25280.89858793 -.00000010  00000+0  00000+0 0  9999
2 41589   0.0238  48.6613 0000171  33.2270 141.4086  1.00272794 34133
EUTELSAT 172B           
1 42741U 17029B   25280.75367766 -.00000003  00000+0  00000+0 0  9993
2 42741   0.0168 175.0587 0000057 297.1268 347.7993  1.00271956 31192
EUTELSAT 7C             
1 44334U 19034B   25279.06780303  .00000051  00000+0  00000+0 0  9991
2 44334   0.0646 184.5377 0003490 353.0320 228.8468  1.00272812  4288
EUTELSAT 5 WEST B       
1 44624U 19067A   25279.92180882 -.00000039  00000+0  00000+0 0  9997
2 44624   0.0665   8.1967 0003283 192.1601 142.3413  1.00271877 21897
EUTELSAT KONNECT        
1 45027U 20005B   25278.99647605  .00000052  00000+0  00000+0 0  9990
2 45027   0.0650  96.4005 0001767  95.5385 188.9228  1.00275330 21777
